STARLINK-2098
1 27378C 21005AF  21325.15922009  .00010469  00000-0  70157-3 0  3254
2 27378  53.0548 227.5156 0002118  70.2932  82.4705 15.06379234    16
